{
    "type": "FeatureCollection",
    "features": [
        {
            "type": "Feature",
            "geometry": {
                "type": "Polygon",
                "coordinates": [
                    [
                        [
                            110.480259,
                            -6.956227,
                            0
                        ],
                        [
                            110.479676,
                            -6.958142,
                            0
                        ],
                        [
                            110.480223,
                            -6.958216,
                            0
                        ],
                        [
                            110.480964,
                            -6.958269,
                            0
                        ],
                        [
                            110.48172,
                            -6.958419,
                            0
                        ],
                        [
                            110.482047,
                            -6.958483,
                            0
                        ],
                        [
                            110.481983,
                            -6.958803,
                            0
                        ],
                        [
                            110.481339,
                            -6.958717,
                            0
                        ],
                        [
                            110.481221,
                            -6.959675,
                            0
                        ],
                        [
                            110.482769,
                            -6.959856,
                            0
                        ],
                        [
                            110.482809,
                            -6.960022,
                            0
                        ],
                        [
                            110.48518,
                            -6.960825,
                            0
                        ],
                        [
                            110.486591,
                            -6.961149,
                            0
                        ],
                        [
                            110.486747,
                            -6.960851,
                            0
                        ],
                        [
                            110.489047,
                            -6.961212,
                            0
                        ],
                        [
                            110.488902,
                            -6.960072,
                            0
                        ],
                        [
                            110.48879,
                            -6.959646,
                            0
                        ],
                        [
                            110.488725,
                            -6.958049,
                            0
                        ],
                        [
                            110.486671,
                            -6.957662,
                            0
                        ],
                        [
                            110.484376,
                            -6.957172,
                            0
                        ],
                        [
                            110.481919,
                            -6.95664,
                            0
                        ],
                        [
                            110.480259,
                            -6.956227,
                            0
                        ]
                    ]
                ]
            },
            "properties": {
                "name": "RW 3",
                "description": "RW 3 Banjardowo",
                "styleUrl": "#poly-558B2F-4401-77",
                "fill-opacity": 0.30196078431372547,
                "fill": "#558b2f",
                "stroke-opacity": 1,
                "stroke": "#558b2f",
                "stroke-width": 4.401
            },
            "bbox": [
                110.479676,
                -6.961212,
                110.489047,
                -6.956227
            ]
        },
        {
            "type": "Feature",
            "geometry": {
                "type": "Point",
                "coordinates": [
                    110.48243,
                    -6.958736,
                    0
                ]
            },
            "properties": {
                "name": "Dipal Donuts",
                "styleUrl": "#icon-1603-558B2F-nodesc",
                "label-scale": 0,
                "icon-scale": 1,
                "icon": "images/icon-1.png"
            },
            "bbox": [
                110.48243,
                -6.958736,
                110.48243,
                -6.958736
            ]
        },
        {
            "type": "Feature",
            "geometry": {
                "type": "Point",
                "coordinates": [
                    110.483429,
                    -6.957915,
                    0
                ]
            },
            "properties": {
                "name": "Produksi Tahu “pak Sukron Jamil”",
                "styleUrl": "#icon-1577-558B2F-nodesc",
                "label-scale": 0,
                "icon-scale": 1,
                "icon": "images/icon-2.png"
            },
            "bbox": [
                110.483429,
                -6.957915,
                110.483429,
                -6.957915
            ]
        },
        {
            "type": "Feature",
            "geometry": {
                "type": "Point",
                "coordinates": [
                    110.482011,
                    -6.958949,
                    0
                ]
            },
            "properties": {
                "name": "Shevariz",
                "styleUrl": "#icon-1637-558B2F-nodesc",
                "label-scale": 0,
                "icon-scale": 1,
                "icon": "images/icon-3.png"
            },
            "bbox": [
                110.482011,
                -6.958949,
                110.482011,
                -6.958949
            ]
        },
        {
            "type": "Feature",
            "geometry": {
                "type": "Point",
                "coordinates": [
                    110.482107,
                    -6.957598,
                    0
                ]
            },
            "properties": {
                "name": "Jejamuran Ati Becik Banjardowo Genuk",
                "styleUrl": "#icon-1587-558B2F-nodesc",
                "label-scale": 0,
                "icon-scale": 1,
                "icon": "images/icon-4.png"
            },
            "bbox": [
                110.482107,
                -6.957598,
                110.482107,
                -6.957598
            ]
        },
        {
            "type": "Feature",
            "geometry": {
                "type": "Point",
                "coordinates": [
                    110.482624,
                    -6.959696,
                    0
                ]
            },
            "properties": {
                "name": "Symphonie Busa “Pak Agus”",
                "styleUrl": "#icon-1685-558B2F-nodesc",
                "label-scale": 0,
                "icon-scale": 1,
                "icon": "images/icon-5.png"
            },
            "bbox": [
                110.482624,
                -6.959696,
                110.482624,
                -6.959696
            ]
        },
        {
            "type": "Feature",
            "geometry": {
                "type": "Point",
                "coordinates": [
                    110.481805,
                    -6.95677,
                    0
                ]
            },
            "properties": {
                "name": "RosellaQU",
                "styleUrl": "#icon-1582-558B2F-nodesc",
                "label-scale": 0,
                "icon-scale": 1,
                "icon": "images/icon-6.png"
            },
            "bbox": [
                110.481805,
                -6.95677,
                110.481805,
                -6.95677
            ]
        }
    ]
}