{
    "type": "FeatureCollection",
    "features": [
        {
            "type": "Feature",
            "geometry": {
                "type": "Polygon",
                "coordinates": [
                    [
                        [
                            110.480247,
                            -6.956042,
                            0
                        ],
                        [
                            110.479664,
                            -6.957957,
                            0
                        ],
                        [
                            110.480211,
                            -6.958031,
                            0
                        ],
                        [
                            110.480952,
                            -6.958084,
                            0
                        ],
                        [
                            110.481708,
                            -6.958234,
                            0
                        ],
                        [
                            110.482035,
                            -6.958298,
                            0
                        ],
                        [
                            110.481971,
                            -6.958618,
                            0
                        ],
                        [
                            110.481327,
                            -6.958532,
                            0
                        ],
                        [
                            110.481209,
                            -6.95949,
                            0
                        ],
                        [
                            110.482757,
                            -6.959671,
                            0
                        ],
                        [
                            110.482797,
                            -6.959837,
                            0
                        ],
                        [
                            110.485168,
                            -6.96064,
                            0
                        ],
                        [
                            110.486579,
                            -6.960964,
                            0
                        ],
                        [
                            110.486735,
                            -6.960666,
                            0
                        ],
                        [
                            110.489035,
                            -6.961027,
                            0
                        ],
                        [
                            110.48889,
                            -6.959887,
                            0
                        ],
                        [
                            110.488778,
                            -6.959461,
                            0
                        ],
                        [
                            110.488713,
                            -6.957864,
                            0
                        ],
                        [
                            110.486659,
                            -6.957477,
                            0
                        ],
                        [
                            110.484363,
                            -6.956987,
                            0
                        ],
                        [
                            110.481907,
                            -6.956455,
                            0
                        ],
                        [
                            110.480247,
                            -6.956042,
                            0
                        ]
                    ]
                ]
            },
            "properties": {
                "name": "RW 3",
                "description": "RW 3 Banjardowo",
                "styleUrl": "#poly-FF5252-5101-77",
                "fill-opacity": 0.30196078431372547,
                "fill": "#ff5252",
                "stroke-opacity": 1,
                "stroke": "#ff5252",
                "stroke-width": 5.101
            },
            "bbox": [
                110.479664,
                -6.961027,
                110.489035,
                -6.956042
            ]
        }
    ]
}